[{"OBJECT_NAME":"ORS-5 SENSORSAT","OBJECT_ID":"2017-050A","EPOCH":"2026-03-09T15:38:19.109184","MEAN_MOTION":15.0051408,"ECCENTRICITY":0.0010549,"INCLINATION":0.0472,"RA_OF_ASC_NODE":167.086,"ARG_OF_PERICENTER":19.2794,"MEAN_ANOMALY":173.6211,"EPHEMERIS_TYPE":0,"CLASSIFICATION_TYPE":"U","NORAD_CAT_ID":42921,"ELEMENT_SET_NO":999,"REV_AT_EPOCH":46607,"BSTAR":0.00021756,"MEAN_MOTION_DOT":3.656e-5,"MEAN_MOTION_DDOT":0},{"OBJECT_NAME":"STARLINK-4316","OBJECT_ID":"2022-099G","EPOCH":"2026-03-09T21:23:01.277664","MEAN_MOTION":15.05645084,"ECCENTRICITY":0.00013129,"INCLINATION":97.6041,"RA_OF_ASC_NODE":191.3865,"ARG_OF_PERICENTER":264.4778,"MEAN_ANOMALY":95.6299,"EPHEMERIS_TYPE":0,"CLASSIFICATION_TYPE":"U","NORAD_CAT_ID":53471,"ELEMENT_SET_NO":999,"REV_AT_EPOCH":19607,"BSTAR":0.00010610035,"MEAN_MOTION_DOT":1.47e-5,"MEAN_MOTION_DDOT":0}]
